[{"OBJECT_NAME":"ONEWEB-0171","OBJECT_ID":"2021-025AE","EPOCH":"2026-03-04T06:34:39.825120","MEAN_MOTION":13.13470591,"ECCENTRICITY":0.00017657,"INCLINATION":87.9038,"RA_OF_ASC_NODE":341.0995,"ARG_OF_PERICENTER":82.114,"MEAN_ANOMALY":278.019,"EPHEMERIS_TYPE":0,"CLASSIFICATION_TYPE":"U","NORAD_CAT_ID":48070,"ELEMENT_SET_NO":999,"REV_AT_EPOCH":23984,"BSTAR":-0.0007491194,"MEAN_MOTION_DOT":-2.61e-6,"MEAN_MOTION_DDOT":0},{"OBJECT_NAME":"ONEWEB-0172","OBJECT_ID":"2021-025AF","EPOCH":"2026-03-05T04:01:46.941888","MEAN_MOTION":13.13469264,"ECCENTRICITY":0.0001872,"INCLINATION":87.904,"RA_OF_ASC_NODE":340.9097,"ARG_OF_PERICENTER":84.1124,"MEAN_ANOMALY":276.0219,"EPHEMERIS_TYPE":0,"CLASSIFICATION_TYPE":"U","NORAD_CAT_ID":48071,"ELEMENT_SET_NO":999,"REV_AT_EPOCH":24085,"BSTAR":-0.00057438,"MEAN_MOTION_DOT":-1.97e-6,"MEAN_MOTION_DDOT":0},{"OBJECT_NAME":"ONEWEB-0174","OBJECT_ID":"2021-025AG","EPOCH":"2026-03-05T03:34:58.329408","MEAN_MOTION":13.13468821,"ECCENTRICITY":0.0001816,"INCLINATION":87.9038,"RA_OF_ASC_NODE":340.9142,"ARG_OF_PERICENTER":76.035,"MEAN_ANOMALY":284.0981,"EPHEMERIS_TYPE":0,"CLASSIFICATION_TYPE":"U","NORAD_CAT_ID":48072,"ELEMENT_SET_NO":999,"REV_AT_EPOCH":24017,"BSTAR":0.00064508,"MEAN_MOTION_DOT":2.48e-6,"MEAN_MOTION_DDOT":0},{"OBJECT_NAME":"ONEWEB-0175","OBJECT_ID":"2021-025AH","EPOCH":"2026-03-05T04:18:50.755968","MEAN_MOTION":13.13469356,"ECCENTRICITY":0.0001785,"INCLINATION":87.9047,"RA_OF_ASC_NODE":340.8837,"ARG_OF_PERICENTER":89.1584,"MEAN_ANOMALY":270.9749,"EPHEMERIS_TYPE":0,"CLASSIFICATION_TYPE":"U","NORAD_CAT_ID":48073,"ELEMENT_SET_NO":999,"REV_AT_EPOCH":23983,"BSTAR":-0.00079355,"MEAN_MOTION_DOT":-2.77e-6,"MEAN_MOTION_DDOT":0},{"OBJECT_NAME":"ONEWEB-0177","OBJECT_ID":"2021-025AJ","EPOCH":"2026-03-04T06:39:33.465024","MEAN_MOTION":13.13470244,"ECCENTRICITY":0.00019513,"INCLINATION":87.905,"RA_OF_ASC_NODE":341.0836,"ARG_OF_PERICENTER":76.0554,"MEAN_ANOMALY":284.0792,"EPHEMERIS_TYPE":0,"CLASSIFICATION_TYPE":"U","NORAD_CAT_ID":48074,"ELEMENT_SET_NO":999,"REV_AT_EPOCH":23990,"BSTAR":0.00019081786,"MEAN_MOTION_DOT":8.2e-7,"MEAN_MOTION_DDOT":0},{"OBJECT_NAME":"ONEWEB-0178","OBJECT_ID":"2021-025AK","EPOCH":"2026-03-05T03:13:14.206944","MEAN_MOTION":13.13469588,"ECCENTRICITY":0.0001901,"INCLINATION":87.903,"RA_OF_ASC_NODE":340.942,"ARG_OF_PERICENTER":86.3499,"MEAN_ANOMALY":273.7848,"EPHEMERIS_TYPE":0,"CLASSIFICATION_TYPE":"U","NORAD_CAT_ID":48075,"ELEMENT_SET_NO":999,"REV_AT_EPOCH":24006,"BSTAR":0.00079583,"MEAN_MOTION_DOT":3.03e-6,"MEAN_MOTION_DDOT":0},{"OBJECT_NAME":"ONEWEB-0108","OBJECT_ID":"2021-025AL","EPOCH":"2026-03-05T00:24:49.249152","MEAN_MOTION":13.13468883,"ECCENTRICITY":0.0001572,"INCLINATION":87.9045,"RA_OF_ASC_NODE":340.9252,"ARG_OF_PERICENTER":72.9284,"MEAN_ANOMALY":287.2018,"EPHEMERIS_TYPE":0,"CLASSIFICATION_TYPE":"U","NORAD_CAT_ID":48076,"ELEMENT_SET_NO":999,"REV_AT_EPOCH":23997,"BSTAR":-0.00075927,"MEAN_MOTION_DOT":-2.65e-6,"MEAN_MOTION_DDOT":0},{"OBJECT_NAME":"ONEWEB-0169","OBJECT_ID":"2021-025AM","EPOCH":"2026-03-05T03:00:50.016096","MEAN_MOTION":13.1347026,"ECCENTRICITY":0.0001609,"INCLINATION":87.9038,"RA_OF_ASC_NODE":340.9204,"ARG_OF_PERICENTER":73.0905,"MEAN_ANOMALY":287.04,"EPHEMERIS_TYPE":0,"CLASSIFICATION_TYPE":"U","NORAD_CAT_ID":48077,"ELEMENT_SET_NO":999,"REV_AT_EPOCH":23864,"BSTAR":0.00071217,"MEAN_MOTION_DOT":2.73e-6,"MEAN_MOTION_DDOT":0},{"OBJECT_NAME":"ONEWEB-0176","OBJECT_ID":"2021-031A","EPOCH":"2026-03-05T03:01:24.423168","MEAN_MOTION":13.14501686,"ECCENTRICITY":0.0001676,"INCLINATION":87.8995,"RA_OF_ASC_NODE":310.4619,"ARG_OF_PERICENTER":82.8305,"MEAN_ANOMALY":277.3015,"EPHEMERIS_TYPE":0,"CLASSIFICATION_TYPE":"U","NORAD_CAT_ID":48210,"ELEMENT_SET_NO":999,"REV_AT_EPOCH":23464,"BSTAR":0.00074932,"MEAN_MOTION_DOT":2.91e-6,"MEAN_MOTION_DDOT":0},{"OBJECT_NAME":"ONEWEB-0184","OBJECT_ID":"2021-031B","EPOCH":"2026-03-05T02:22:34.763808","MEAN_MOTION":13.14502398,"ECCENTRICITY":0.000207,"INCLINATION":87.9009,"RA_OF_ASC_NODE":310.4574,"ARG_OF_PERICENTER":105.1333,"MEAN_ANOMALY":255.0025,"EPHEMERIS_TYPE":0,"CLASSIFICATION_TYPE":"U","NORAD_CAT_ID":48211,"ELEMENT_SET_NO":999,"REV_AT_EPOCH":23461,"BSTAR":-0.00049998,"MEAN_MOTION_DOT":-1.73e-6,"MEAN_MOTION_DDOT":0},{"OBJECT_NAME":"ONEWEB-0179","OBJECT_ID":"2021-031C","EPOCH":"2026-03-05T03:29:57.056064","MEAN_MOTION":13.14502607,"ECCENTRICITY":0.000176,"INCLINATION":87.8998,"RA_OF_ASC_NODE":310.4507,"ARG_OF_PERICENTER":77.2215,"MEAN_ANOMALY":282.9111,"EPHEMERIS_TYPE":0,"CLASSIFICATION_TYPE":"U","NORAD_CAT_ID":48212,"ELEMENT_SET_NO":999,"REV_AT_EPOCH":23466,"BSTAR":0.00035991,"MEAN_MOTION_DOT":1.46e-6,"MEAN_MOTION_DDOT":0},{"OBJECT_NAME":"ONEWEB-0180","OBJECT_ID":"2021-031D","EPOCH":"2026-03-05T02:27:08.894592","MEAN_MOTION":13.14502333,"ECCENTRICITY":0.0001949,"INCLINATION":87.9001,"RA_OF_ASC_NODE":310.4605,"ARG_OF_PERICENTER":81.7811,"MEAN_ANOMALY":278.354,"EPHEMERIS_TYPE":0,"CLASSIFICATION_TYPE":"U","NORAD_CAT_ID":48213,"ELEMENT_SET_NO":999,"REV_AT_EPOCH":23454,"BSTAR":-0.00038706,"MEAN_MOTION_DOT":-1.31e-6,"MEAN_MOTION_DDOT":0},{"OBJECT_NAME":"ONEWEB-0218","OBJECT_ID":"2021-031E","EPOCH":"2026-03-05T02:59:07.706400","MEAN_MOTION":13.14501919,"ECCENTRICITY":0.0002306,"INCLINATION":87.8996,"RA_OF_ASC_NODE":310.4554,"ARG_OF_PERICENTER":98.1727,"MEAN_ANOMALY":261.9664,"EPHEMERIS_TYPE":0,"CLASSIFICATION_TYPE":"U","NORAD_CAT_ID":48214,"ELEMENT_SET_NO":999,"REV_AT_EPOCH":23470,"BSTAR":0.00077237,"MEAN_MOTION_DOT":2.99e-6,"MEAN_MOTION_DDOT":0},{"OBJECT_NAME":"ONEWEB-0209","OBJECT_ID":"2021-031F","EPOCH":"2026-03-05T02:43:07.878432","MEAN_MOTION":13.14501947,"ECCENTRICITY":0.0001825,"INCLINATION":87.8985,"RA_OF_ASC_NODE":310.4846,"ARG_OF_PERICENTER":75.8353,"MEAN_ANOMALY":284.2979,"EPHEMERIS_TYPE":0,"CLASSIFICATION_TYPE":"U","NORAD_CAT_ID":48215,"ELEMENT_SET_NO":999,"REV_AT_EPOCH":23470,"BSTAR":0.00017909,"MEAN_MOTION_DOT":7.9e-7,"MEAN_MOTION_DDOT":0},{"OBJECT_NAME":"ONEWEB-0198","OBJECT_ID":"2021-031G","EPOCH":"2026-03-05T02:20:29.700672","MEAN_MOTION":13.14502367,"ECCENTRICITY":0.0002083,"INCLINATION":87.8993,"RA_OF_ASC_NODE":310.4869,"ARG_OF_PERICENTER":84.9034,"MEAN_ANOMALY":275.2333,"EPHEMERIS_TYPE":0,"CLASSIFICATION_TYPE":"U","NORAD_CAT_ID":48216,"ELEMENT_SET_NO":999,"REV_AT_EPOCH":23481,"BSTAR":-0.00032028,"MEAN_MOTION_DOT":-1.06e-6,"MEAN_MOTION_DDOT":0},{"OBJECT_NAME":"ONEWEB-0189","OBJECT_ID":"2021-031H","EPOCH":"2026-03-05T02:38:33.986976","MEAN_MOTION":13.14502555,"ECCENTRICITY":0.0002005,"INCLINATION":87.8996,"RA_OF_ASC_NODE":310.4611,"ARG_OF_PERICENTER":84.7524,"MEAN_ANOMALY":275.3834,"EPHEMERIS_TYPE":0,"CLASSIFICATION_TYPE":"U","NORAD_CAT_ID":48217,"ELEMENT_SET_NO":999,"REV_AT_EPOCH":23455,"BSTAR":0.00029048,"MEAN_MOTION_DOT":1.2e-6,"MEAN_MOTION_DDOT":0},{"OBJECT_NAME":"ONEWEB-0196","OBJECT_ID":"2021-031J","EPOCH":"2026-03-05T02:06:35.710848","MEAN_MOTION":13.14502303,"ECCENTRICITY":0.0001812,"INCLINATION":87.8998,"RA_OF_ASC_NODE":310.4762,"ARG_OF_PERICENTER":81.2392,"MEAN_ANOMALY":278.8943,"EPHEMERIS_TYPE":0,"CLASSIFICATION_TYPE":"U","NORAD_CAT_ID":48218,"ELEMENT_SET_NO":999,"REV_AT_EPOCH":23455,"BSTAR":-0.00041168,"MEAN_MOTION_DOT":-1.4e-6,"MEAN_MOTION_DDOT":0}]
