ONEWEB-0171             
1 48070U 21025AE  26063.27407205 -.00000261  00000+0 -74912-3 0  9999
2 48070  87.9038 341.0995 0001765  82.1140 278.0190 13.13470591239849
ONEWEB-0172             
1 48071U 21025AF  26064.16790442 -.00000197  00000+0 -57438-3 0  9999
2 48071  87.9040 340.9097 0001872  84.1124 276.0219 13.13469264240855
ONEWEB-0174             
1 48072U 21025AG  26064.14928622  .00000248  00000+0  64508-3 0  9992
2 48072  87.9038 340.9142 0001816  76.0350 284.0981 13.13468821240171
ONEWEB-0175             
1 48073U 21025AH  26064.17975412 -.00000277  00000+0 -79355-3 0  9995
2 48073  87.9047 340.8837 0001785  89.1584 270.9749 13.13469356239832
ONEWEB-0177             
1 48074U 21025AJ  26063.27747066  .00000082  00000+0  19082-3 0  9991
2 48074  87.9050 341.0836 0001951  76.0554 284.0792 13.13470244239906
ONEWEB-0178             
1 48075U 21025AK  26064.13419221  .00000303  00000+0  79583-3 0  9995
2 48075  87.9030 340.9420 0001901  86.3499 273.7848 13.13469588240064
ONEWEB-0108             
1 48076U 21025AL  26064.01723668 -.00000265  00000+0 -75927-3 0  9993
2 48076  87.9045 340.9252 0001572  72.9284 287.2018 13.13468883239975
ONEWEB-0169             
1 48077U 21025AM  26064.12557889  .00000273  00000+0  71217-3 0  9991
2 48077  87.9038 340.9204 0001609  73.0905 287.0400 13.13470260238646
ONEWEB-0176             
1 48210U 21031A   26064.12597712  .00000291  00000+0  74932-3 0  9993
2 48210  87.8995 310.4619 0001676  82.8305 277.3015 13.14501686234642
ONEWEB-0184             
1 48211U 21031B   26064.09901347 -.00000173  00000+0 -49998-3 0  9998
2 48211  87.9009 310.4574 0002070 105.1333 255.0025 13.14502398234611
ONEWEB-0179             
1 48212U 21031C   26064.14579926  .00000146  00000+0  35991-3 0  9995
2 48212  87.8998 310.4507 0001760  77.2215 282.9111 13.14502607234660
ONEWEB-0180             
1 48213U 21031D   26064.10218628 -.00000131  00000+0 -38706-3 0  9994
2 48213  87.9001 310.4605 0001949  81.7811 278.3540 13.14502333234545
ONEWEB-0218             
1 48214U 21031E   26064.12439475  .00000299  00000+0  77237-3 0  9997
2 48214  87.8996 310.4554 0002306  98.1727 261.9664 13.14501919234709
ONEWEB-0209             
1 48215U 21031F   26064.11328563  .00000079  00000+0  17909-3 0  9998
2 48215  87.8985 310.4846 0001825  75.8353 284.2979 13.14501947234702
ONEWEB-0198             
1 48216U 21031G   26064.09756598 -.00000106  00000+0 -32028-3 0  9991
2 48216  87.8993 310.4869 0002083  84.9034 275.2333 13.14502367234814
ONEWEB-0189             
1 48217U 21031H   26064.11011559  .00000120  00000+0  29048-3 0  9998
2 48217  87.8996 310.4611 0002005  84.7524 275.3834 13.14502555234556
ONEWEB-0196             
1 48218U 21031J   26064.08791332 -.00000140  00000+0 -41168-3 0  9990
2 48218  87.8998 310.4762 0001812  81.2392 278.8943 13.14502303234556
